CTC1_L_00641007-03
1 21226U 26045ZB  26070.40841435  .00000000  00000+0  00000-0 0  9993
2 21226  60.0000 180.0000 0000000   0.0000 144.0000  3.78963984    17
CTC1_L_00641007-04
1 21227U 26501CO  26070.40841435  .00000000  00000+0  00000-0 0  9991
2 21227  60.0000 180.0000 0000000   0.0000 180.0000  3.78963984    18
CTC1_L_00641007-05
1 21228U 26181QH  26070.40841435  .00000000  00000+0  00000-0 0  9996
2 21228  60.0000 180.0000 0000000   0.0000 216.0000  3.78963984    19
CTC1_L_00641007-06
1 21229U 25903GV  26070.40841435  .00000000  00000+0  00000-0 0  9998
2 21229  60.0000 180.0000 0000000   0.0000 252.0000  3.78963984    10
CTC1_L_00641007-07
1 21230U 25189YN  26070.40841435  .00000000  00000+0  00000-0 0  9996
2 21230  60.0000 180.0000 0000000   0.0000 288.0000  3.78963984    11
CTC1_L_00641007-08
1 21231U 22531VF  26070.40841435  .00000000  00000+0  00000-0 0  9995
2 21231  60.0000 180.0000 0000000   0.0000 324.0000  3.78963984    13
CTC1_L_00641007-09
1 21232U 25118YL  26070.40841435  .00000000  00000+0  00000-0 0  9990
2 21232  60.0000 180.0000 0000000   0.0000   0.0000  3.78963984    15
CTC1_L_00641007-10
1 21233U 25979QC  26070.40841435  .00000000  00000+0  00000-0 0  9996
2 21233  60.0000 180.0000 0000000   0.0000  36.0000  3.78963984    15
CTC1_L_00641008-01
1 21234U 26704TI  26070.40841435  .00000000  00000+0  00000-0 0  9994
2 21234  60.0000 210.0000 0000000   0.0000  84.0000  3.78963984    13
CTC1_L_00641008-02
1 21235U 24740UB  26070.40841435  .00000000  00000+0  00000-0 0  9993
2 21235  60.0000 210.0000 0000000   0.0000 120.0000  3.78963984    15
CTC1_L_00641008-03
1 21236U 25108FK  26070.40841435  .00000000  00000+0  00000-0 0  9993
2 21236  60.0000 210.0000 0000000   0.0000 156.0000  3.78963984    15
CTC1_L_00641008-04
1 21237U 23170KZ  26070.40841435  .00000000  00000+0  00000-0 0  9991
2 21237  60.0000 210.0000 0000000   0.0000 192.0000  3.78963984    16
CTC1_L_00641008-05
1 21238U 24808DY  26070.40841435  .00000000  00000+0  00000-0 0  9991
2 21238  60.0000 210.0000 0000000   0.0000 228.0000  3.78963984    17
CTC1_L_00641008-06
1 21239U 24175AM  26070.40841435  .00000000  00000+0  00000-0 0  9999
2 21239  60.0000 210.0000 0000000   0.0000 264.0000  3.78963984    18
CTC1_L_00641008-07
1 21240U 22449QL  26070.40841435  .00000000  00000+0  00000-0 0  9993
2 21240  60.0000 210.0000 0000000   0.0000 300.0000  3.78963984    11
CTC1_L_00641008-08
1 21241U 24652RL  26070.40841435  .00000000  00000+0  00000-0 0  9992
2 21241  60.0000 210.0000 0000000   0.0000 336.0000  3.78963984    11
CTC1_L_00641008-09
1 21242U 22868IN  26070.40841435  .00000000  00000+0  00000-0 0  9990
2 21242  60.0000 210.0000 0000000   0.0000  12.0000  3.78963984    13
CTC1_L_00641008-10
1 21243U 25262SS  26070.40841435  .00000000  00000+0  00000-0 0  9992
2 21243  60.0000 210.0000 0000000   0.0000  48.0000  3.78963984    13
CTC1_L_00641009-01
1 21244U 24344FP  26070.40841435  .00000000  00000+0  00000-0 0  9993
2 21244  60.0000 240.0000 0000000   0.0000  96.0000  3.78963984    10
CTC1_L_00641009-02
1 21245U 23854VL  26070.40841435  .00000000  00000+0  00000-0 0  9999
2 21245  60.0000 240.0000 0000000   0.0000 132.0000  3.78963984    12
CTC1_L_00641009-03
1 21246U 22686TZ  26070.40841435  .00000000  00000+0  00000-0 0  9992
2 21246  60.0000 240.0000 0000000   0.0000 168.0000  3.78963984    12
CTC1_L_00641009-04
1 21247U 26495YY  26070.40841435  .00000000  00000+0  00000-0 0  9995
2 21247  60.0000 240.0000 0000000   0.0000 204.0000  3.78963984    14
CTC1_L_00641009-05
1 21248U 23022WY  26070.40841435  .00000000  00000+0  00000-0 0  9999
2 21248  60.0000 240.0000 0000000   0.0000 240.0000  3.78963984    15
CTC1_L_00641009-06
1 21249U 25936KW  26070.40841435  .00000000  00000+0  00000-0 0  9996
2 21249  60.0000 240.0000 0000000   0.0000 276.0000  3.78963984    15
CTC1_L_00641009-07
1 21250U 22481PK  26070.40841435  .00000000  00000+0  00000-0 0  9990
2 21250  60.0000 240.0000 0000000   0.0000 312.0000  3.78963984    18
CTC1_L_00641009-08
1 21251U 26450EP  26070.40841435  .00000000  00000+0  00000-0 0  9991
2 21251  60.0000 240.0000 0000000   0.0000 348.0000  3.78963984    18
CTC1_L_00641009-09
1 21252U 25806VB  26070.40841435  .00000000  00000+0  00000-0 0  9996
2 21252  60.0000 240.0000 0000000   0.0000  24.0000  3.78963984    10
CTC1_L_00641009-10
1 21253U 24054BT  26070.40841435  .00000000  00000+0  00000-0 0  9991
2 21253  60.0000 240.0000 0000000   0.0000  60.0000  3.78963984    11
CTC1_L_00641010-01
1 21254U 24171UV  26070.40841435  .00000000  00000+0  00000-0 0  9992
2 21254  60.0000 270.0000 0000000   0.0000 108.0000  3.78963984    18
CTC1_L_00641010-02
1 21255U 24098BX  26070.40841435  .00000000  00000+0  00000-0 0  9991
2 21255  60.0000 270.0000 0000000   0.0000 144.0000  3.78963984    19
CTC1_L_00641010-03
1 21256U 23514EN  26070.40841435  .00000000  00000+0  00000-0 0  9994
2 21256  60.0000 270.0000 0000000   0.0000 180.0000  3.78963984    10
CTC1_L_00641010-04
1 21257U 25071EV  26070.40841435  .00000000  00000+0  00000-0 0  9995
2 21257  60.0000 270.0000 0000000   0.0000 216.0000  3.78963984    11
CTC1_L_00641010-05
1 21258U 24328Y   26070.40841435  .00000000  00000+0  00000-0 0  9990
2 21258  60.0000 270.0000 0000000   0.0000 252.0000  3.78963984    12
CTC1_L_00641010-06
1 21259U 25805CC  26070.40841435  .00000000  00000+0  00000-0 0  9992
2 21259  60.0000 270.0000 0000000   0.0000 288.0000  3.78963984    12
CTC1_L_00641010-07
1 21260U 25877ZG  26070.40841435  .00000000  00000+0  00000-0 0  9993
2 21260  60.0000 270.0000 0000000   0.0000 324.0000  3.78963984    15
CTC1_L_00641010-08
1 21261U 24458DS  26070.40841435  .00000000  00000+0  00000-0 0  9998
2 21261  60.0000 270.0000 0000000   0.0000   0.0000  3.78963984    17
CTC1_L_00641010-09
1 21262U 22726IS  26070.40841435  .00000000  00000+0  00000-0 0  9995
2 21262  60.0000 270.0000 0000000   0.0000  36.0000  3.78963984    17
CTC1_L_00641010-10
1 21263U 24460D   26070.40841435  .00000000  00000+0  00000-0 0  9993
2 21263  60.0000 270.0000 0000000   0.0000  72.0000  3.78963984    18
CTC1_L_00641011-01
1 21264U 22532VJ  26070.40841435  .00000000  00000+0  00000-0 0  9992
2 21264  60.0000 300.0000 0000000   0.0000 120.0000  3.78963984    17
CTC1_L_00641011-02
1 21265U 24771NJ  26070.40841435  .00000000  00000+0  00000-0 0  9990
2 21265  60.0000 300.0000 0000000   0.0000 156.0000  3.78963984    17
CTC1_L_00641011-03
1 21266U 22264MF  26070.40841435  .00000000  00000+0  00000-0 0  9996
2 21266  60.0000 300.0000 0000000   0.0000 192.0000  3.78963984    18
CTC1_L_00641011-04
1 21267U 25480VN  26070.40841435  .00000000  00000+0  00000-0 0  9990
2 21267  60.0000 300.0000 0000000   0.0000 228.0000  3.78963984    19
CTC1_L_00641011-05
1 21268U 22532SV  26070.40841435  .00000000  00000+0  00000-0 0  9996
2 21268  60.0000 300.0000 0000000   0.0000 264.0000  3.78963984    10
CTC1_L_00641011-06
1 21269U 25817BT  26070.40841435  .00000000  00000+0  00000-0 0  9996
2 21269  60.0000 300.0000 0000000   0.0000 300.0000  3.78963984    12
CTC1_L_00641011-07
1 21270U 24923JK  26070.40841435  .00000000  00000+0  00000-0 0  9995
2 21270  60.0000 300.0000 0000000   0.0000 336.0000  3.78963984    13
CTC1_L_00641011-08
1 21271U 23218BZ  26070.40841435  .00000000  00000+0  00000-0 0  9992
2 21271  60.0000 300.0000 0000000   0.0000  12.0000  3.78963984    15
CTC1_L_00641011-09
1 21272U 24109XA  26070.40841435  .00000000  00000+0  00000-0 0  9993
2 21272  60.0000 300.0000 0000000   0.0000  48.0000  3.78963984    15
CTC1_L_00641011-10
1 21273U 24823YA  26070.40841435  .00000000  00000+0  00000-0 0  9997
2 21273  60.0000 300.0000 0000000   0.0000  84.0000  3.78963984    16
CTC1_L_00641012-01
1 21274U 22883TV  26070.40841435  .00000000  00000+0  00000-0 0  9992
2 21274  60.0000 330.0000 0000000   0.0000 132.0000  3.78963984    14
CTC1_L_00641012-02
1 21275U 22660TD  26070.40841435  .00000000  00000+0  00000-0 0  9996
2 21275  60.0000 330.0000 0000000   0.0000 168.0000  3.78963984    14
CTC1_L_00641012-03
1 21276U 23712VR  26070.40841435  .00000000  00000+0  00000-0 0  9996
2 21276  60.0000 330.0000 0000000   0.0000 204.0000  3.78963984    16
CTC1_L_00641012-04
1 21277U 22694JS  26070.40841435  .00000000  00000+0  00000-0 0  9995
2 21277  60.0000 330.0000 0000000   0.0000 240.0000  3.78963984    17
CTC1_L_00641012-05
1 21278U 23314IW  26070.40841435  .00000000  00000+0  00000-0 0  9996
2 21278  60.0000 330.0000 0000000   0.0000 276.0000  3.78963984    17
CTC1_L_00641012-06
1 21279U 25305FH  26070.40841435  .00000000  00000+0  00000-0 0  9999
2 21279  60.0000 330.0000 0000000   0.0000 312.0000  3.78963984    19
CTC1_L_00641012-07
1 21280U 25606RQ  26070.40841435  .00000000  00000+0  00000-0 0  9995
2 21280  60.0000 330.0000 0000000   0.0000 348.0000  3.78963984    10
CTC1_L_00641012-08
1 21281U 23601SA  26070.40841435  .00000000  00000+0  00000-0 0  9999
2 21281  60.0000 330.0000 0000000   0.0000  24.0000  3.78963984    12
CTC1_L_00641012-09
1 21282U 26638UD  26070.40841435  .00000000  00000+0  00000-0 0  9993
2 21282  60.0000 330.0000 0000000   0.0000  60.0000  3.78963984    13
CTC1_L_00641012-10
1 21283U 22656CL  26070.40841435  .00000000  00000+0  00000-0 0  9990
2 21283  60.0000 330.0000 0000000   0.0000  96.0000  3.78963984    13
